NOAA 3 [-]              
1 06920U 73086A   22195.80956781 -.00000054  00000+0 -58921-4 0  9993
2 06920 102.2085 177.4253 0006018 240.3557 185.1198 12.40347467204183
NOAA 4 [-]              
1 07529U 74089A   22196.21242981 -.00000047  00000+0 -10056-4 0  9998
2 07529 101.9136 175.9314 0009458  51.9726 319.4119 12.53158559180261
NOAA 5 [-]              
1 09057U 76077A   22195.79616473 -.00000046  00000+0 -10993-4 0  9997
2 09057 102.0999 163.4948 0010321  87.4276 333.8452 12.37772202 77127
TIROS N [-]             
1 11060U 78096A   22195.85837804  .00000100  00000+0  69343-4 0  9999
2 11060  98.6339 248.8734 0011656  67.7316 292.5094 14.18397870475491
NOAA 6 [-]              
1 11416U 79057A   22195.75893985  .00000176  00000+0  79466-4 0  9993
2 11416  98.6631 206.6558 0010427 171.7530 188.3828 14.33772103245435
NOAA 7 [-]              
1 12553U 81059A   22195.83298482  .00000031  00000+0  38063-4 0  9999
2 12553  98.9972 240.5873 0012163  42.2589 317.9520 14.17336487121672
NOAA 8 [-]              
1 13923U 83022A   22195.73745040  .00000071  00000+0  45623-4 0  9993
2 13923  98.6871 186.1755 0015989 126.9936 233.2711 14.28816298 46301
NOAA 9 [-]              
1 15427U 84123A   22195.86279153  .00000051  00000+0  48813-4 0  9990
2 15427  99.0465 168.6793 0015923  87.7211 328.8584 14.16209062940495
NOAA 10 [-]             
1 16969U 86073A   22195.84527362  .00000057  00000+0  40171-4 0  9999
2 16969  98.5683 181.4965 0011235 229.0102 195.0110 14.28207563864748
NOAA 11 [-]             
1 19531U 88089A   22195.84318994  .00000019  00000+0  30531-4 0  9992
2 19531  98.4245 183.4216 0012381  98.8891 261.3686 14.15314431744695
NOAA 12 [-]             
1 21263U 91032A   22195.85717375  .00000039  00000+0  34131-4 0  9998
2 21263  98.5139 194.9113 0012439 258.4894 101.4890 14.25999748620636
NOAA 13 [-]             
1 22739U 93050A   22195.85336866  .00000049  00000+0  48462-4 0  9994
2 22739  98.5054 174.2894 0008305 265.1403  94.8822 14.12849523490924
NOAA 14 [-]             
1 23455U 94089A   22195.86483007  .00000025  00000+0  34367-4 0  9997
2 23455  98.4464 221.0842 0008388 242.2793 117.7530 14.14201560420588
NOAA 15 [B]             
1 25338U 98030A   22196.20282163  .00000157  00000+0  84030-4 0  9996
2 25338  98.6424 225.3734 0009764 210.9819 149.0786 14.26150032257225
NOAA 16 [-]             
1 26536U 00055A   22195.86553222  .00000051  00000+0  49730-4 0  9996
2 26536  98.6349 253.8195 0011698  88.3242 271.9270 14.13334200421228
NOAA 17 [-]             
1 27453U 02032A   22195.88445361  .00000052  00000+0  40768-4 0  9991
2 27453  98.6725 140.8265 0011557 186.7150 173.3876 14.25128298 42769
NOAA 18 [B]             
1 28654U 05018A   22196.18143090  .00000158  00000+0  10919-3 0  9991
2 28654  98.9482 266.5944 0013260 251.3547 108.6185 14.12753012883983
NOAA 19 [+]             
1 33591U 09005A   22196.18589881  .00000151  00000+0  10666-3 0  9991
2 33591  99.1461 230.9028 0014931 109.2917 250.9870 14.12587835692365
SUOMI NPP [+]           
1 37849U 11061A   22196.10215422  .00000036  00000+0  37904-4 0  9992
2 37849  98.7330 134.2720 0001116  89.3294 281.4078 14.19533277555115
NOAA 20 [+]             
1 43013U 17073A   22196.20568821  .00000043  00000+0  41183-4 0  9998
2 43013  98.7169 134.3274 0001191  63.5086 296.6212 14.19561402241162
CELESTIS-02             
1 25160U 98007D   22195.85296317 -.00000019  00000+0  49027-4 0  9994
2 25160 107.9848 321.9122 0060963  62.5848  56.3909 14.21633742266751
CELESTIS-03             
1 26034U 99070C   22195.84095395  .00017277  00000+0  81208-3 0  9997
2 26034  98.3105 204.5377 0011016  44.7111 315.5008 15.19624268225238
O3B FM5                 
1 39188U 13031A   22196.06206128 -.00000023  00000+0  00000+0 0  9996
2 39188   0.0499  25.7317 0002584  89.0539 245.2379  5.00115264165425
O3B FM4                 
1 39189U 13031B   22195.51721652 -.00000022  00000+0  00000+0 0  9999
2 39189   0.0573 356.6024 0003467 167.3914 196.0142  4.99833263165332
O3B FM2                 
1 39190U 13031C   22195.38505142 -.00000022  00000+0  00000+0 0  9990
2 39190   0.0609 353.0864 0001152 101.0202 265.9036  4.99476714165388
O3B PFM                 
1 39191U 13031D   22195.63618265 -.00000022  00000+0  00000+0 0  9990
2 39191   0.0494  15.3833 0002659  98.0049 246.6367  5.00115616164951
O3B FM3                 
1 40079U 14038A   22195.09124567 -.00000021  00000+0  00000+0 0  9991
2 40079   0.0546   4.2054 0005072 108.7301 247.1153  5.00115329141304
O3B FM7                 
1 40080U 14038B   22195.63698993 -.00000022  00000+0  00000+0 0  9993
2 40080   0.0588   2.6634 0000873 134.2987 223.0416  5.00115367146162
O3B FM6                 
1 40081U 14038C   22195.86325387 -.00000022  00000+0  00000+0 0  9993
2 40081   0.0541   3.0160 0002696 111.3001 245.7088  5.00115373146117
O3B FM8                 
1 40082U 14038D   22195.51743281 -.00000022  00000+0  00000+0 0  9993
2 40082   0.0545 359.7386 0002714 111.1159 249.1716  5.00115562146224
O3B FM10                
1 40348U 14083A   22195.74331335 -.00000022  00000+0  00000+0 0  9996
2 40348   0.0473   9.8283 0002641 103.0918 247.1046  5.00115081138186
O3B FM11                
1 40349U 14083B   22195.75680024 -.00000022  00000+0  00000+0 0  9990
2 40349   0.0514  12.4666 0002172 113.6217 233.9286  5.00115340138206
O3B FM12                
1 40350U 14083C   22195.58410125 -.00000022  00000+0  00000+0 0  9996
2 40350   0.0512  11.4041 0002671 105.9280 242.6921  5.00115187138190
O3B FM9                 
1 40351U 14083D   22195.41116902 -.00000022  00000+0  00000+0 0  9995
2 40351   0.0522  13.3925 0002588 100.2576 246.3741  5.00115521138347
DIAMOND RED             
1 42783U 17036U   22195.83114545  .00007756  00000+0  28748-3 0  9997
2 42783  97.1971 235.6896 0009113 224.3316 135.7195 15.27854741281123
DIAMOND GREEN           
1 42785U 17036W   22195.83006242  .00006482  00000+0  24109-3 0  9995
2 42785  97.1973 235.7532 0008883 225.6128 134.4386 15.27806492281198
DIAMOND BLUE            
1 42786U 17036X   22195.37082025  .00007649  00000+0  28410-3 0  9993
2 42786  97.1975 235.3013 0008885 227.9330 132.1155 15.27789178281126
LEO VANTAGE 1           
1 43113U 18004C   22195.81129002  .00002944  00000+0  23858-3 0  9994
2 43113  99.2468 278.7458 0402385 109.1344 255.3859 14.53916128228219
O3B FM15                
1 43231U 18024A   22195.67702938 -.00000022  00000+0  00000+0 0  9992
2 43231   0.0441   8.0866 0002875 108.1780 243.7618  5.00115920 79313
O3B FM16                
1 43232U 18024B   22195.73040177 -.00000022  00000+0  00000+0 0  9990
2 43232   0.0401   6.9428 0002842 109.5881 243.4950  5.00115809 79235
O3B FM14                
1 43233U 18024C   22195.57007128 -.00000022  00000+0  00000+0 0  9992
2 43233   0.0388   5.5365 0002648 111.2401 243.2474  5.00115221 79234
O3B FM13                
1 43234U 18024D   22194.82289139 -.00000020  00000+0  00000+0 0  9992
2 43234   0.0470  41.8757 0101445 178.9270 138.4307  5.00126458 79317
O3B FM20                
1 44112U 19020A   22195.59680310 -.00000022  00000+0  00000+0 0  9998
2 44112   0.0474   8.9687 0002836 114.5308 236.5245  5.00115373 59846
O3B FM19                
1 44113U 19020B   22195.22376738 -.00000021  00000+0  00000+0 0  9994
2 44113   0.0521  25.4398 0001775  88.1524 246.4236  5.00114807 59706
O3B FM17                
1 44114U 19020C   22195.10445496 -.00000021  00000+0  00000+0 0  9990
2 44114   0.0459 344.7681 0002968 132.2646 242.9949  5.00115463 59789
O3B FM18                
1 44115U 19020D   22195.65067074 -.00000022  00000+0  00000+0 0  9994
2 44115   0.0475   9.5237 0002891 104.2727 246.2308  5.00115695 59935
SALSAT                  
1 46495U 20068K   22195.82975451  .00001842  00000+0  13531-3 0  9994
2 46495  97.7311 137.1417 0016364 178.4389 181.6891 15.04609708 98306
ISS (ZARYA)             
1 25544U 98067A   22196.51021208  .00006684  00000+0  12517-3 0  9991
2 25544  51.6398 196.3106 0004941  13.7716  97.3744 15.49958191349577
SIMPL                   
1 42983U 98067NF  22195.83153724  .00488756  13920-3  40923-3 0  9995
2 42983  51.6231  34.3799 0004326 275.1891  84.8631 16.13128188269331
AEROCUBE 12A            
1 43556U 18046C   22195.89314708  .00019799  00000+0  49435-3 0  9993
2 43556  51.6369  50.0198 0007679 134.3426 225.8189 15.40134492223544
AEROCUBE 12B            
1 43557U 18046D   22195.80087756  .00015262  00000+0  41087-3 0  9991
2 43557  51.6391  55.3305 0007860 130.2229 229.9444 15.38018737223411
LEMUR-2-VU              
1 43558U 18046E   22196.13239677  .00036440  00000+0  68337-3 0  9998
2 43558  51.6388  29.5612 0007701 143.3638 216.7878 15.48258255223838
LEMUR-2-ALEXANDER       
1 43559U 18046F   22195.82142148  .00043020  00000+0  77656-3 0  9996
2 43559  51.6378  29.0138 0007660 148.2934 211.8517 15.49272858223598
LEMUR-2-YUASA           
1 43560U 18046G   22195.84206877  .00041283  00000+0  76653-3 0  9995
2 43560  51.6383  31.3751 0007791 153.2172 206.9220 15.48483982223786
LEMUR-2-TOMHENDERSON    
1 43561U 18046H   22195.92497396  .00032799  00000+0  65641-3 0  9990
2 43561  51.6394  34.1350 0007386 154.4069 205.7285 15.46431834223317
ISS DEB (SEDA-AP)       
1 43870U 98067PU  22195.97931925  .00115033  00000+0  38686-3 0  9992
2 43870  51.6295  86.6240 0002695  79.0586 281.0723 15.89212368203288
ISS DEB                 
1 44303U 98067QA  22195.22725712  .06521458  12383-4  43666-3 0  9991
2 44303  51.6106 108.6489 0007008 253.5937 106.4319 16.40567436178215
RED-EYE 1 (PINOT)       
1 44364U 98067QJ  22196.06046435  .00600209  19697-3  64521-3 0  9992
2 44364  51.6263 109.1569 0001179 269.4020  90.6859 16.09425358173874
STPSAT-4                
1 45043U 98067QY  22196.15039717  .00101940  00000+0  53724-3 0  9997
2 45043  51.6334 153.5727 0003672  19.0876 341.0263 15.79858028139879
